[{"OBJECT_NAME":"YAOGAN-26","OBJECT_ID":"2014-088A","EPOCH":"2026-03-09T23:55:48.061920","MEAN_MOTION":15.43243059,"ECCENTRICITY":0.0006957,"INCLINATION":97.0675,"RA_OF_ASC_NODE":71.8133,"ARG_OF_PERICENTER":64.3824,"MEAN_ANOMALY":295.8143,"EPHEMERIS_TYPE":0,"CLASSIFICATION_TYPE":"U","NORAD_CAT_ID":40362,"ELEMENT_SET_NO":999,"REV_AT_EPOCH":62238,"BSTAR":0.00079284925,"MEAN_MOTION_DOT":0.00035285,"MEAN_MOTION_DDOT":0},{"OBJECT_NAME":"STARLINK-30440","OBJECT_ID":"2023-147L","EPOCH":"2026-03-09T22:00:01.999584","MEAN_MOTION":15.22871623,"ECCENTRICITY":0.00018121,"INCLINATION":43.0002,"RA_OF_ASC_NODE":324.1324,"ARG_OF_PERICENTER":277.8781,"MEAN_ANOMALY":320.8166,"EPHEMERIS_TYPE":0,"CLASSIFICATION_TYPE":"U","NORAD_CAT_ID":57923,"ELEMENT_SET_NO":999,"REV_AT_EPOCH":577,"BSTAR":0.047292502,"MEAN_MOTION_DOT":0.01234313,"MEAN_MOTION_DDOT":0}]
